[{"OBJECT_NAME":"STARLINK-33764","OBJECT_ID":"2025-071T","EPOCH":"2026-03-09T11:41:26.787840","MEAN_MOTION":15.30193252,"ECCENTRICITY":0.00012085,"INCLINATION":53.1574,"RA_OF_ASC_NODE":141.1988,"ARG_OF_PERICENTER":82.0317,"MEAN_ANOMALY":278.0821,"EPHEMERIS_TYPE":0,"CLASSIFICATION_TYPE":"U","NORAD_CAT_ID":63510,"ELEMENT_SET_NO":999,"REV_AT_EPOCH":5271,"BSTAR":0.0008423566,"MEAN_MOTION_DOT":0.00024667,"MEAN_MOTION_DDOT":0},{"OBJECT_NAME":"KSLV-II R\/B","OBJECT_ID":"2023-072H","EPOCH":"2026-03-09T20:13:26.441760","MEAN_MOTION":15.33109439,"ECCENTRICITY":0.00241884,"INCLINATION":97.4991,"RA_OF_ASC_NODE":274.152,"ARG_OF_PERICENTER":318.2938,"MEAN_ANOMALY":41.646,"EPHEMERIS_TYPE":0,"CLASSIFICATION_TYPE":"U","NORAD_CAT_ID":56750,"ELEMENT_SET_NO":999,"REV_AT_EPOCH":15516,"BSTAR":0.00028309532,"MEAN_MOTION_DOT":9.057e-5,"MEAN_MOTION_DDOT":0}]
